{
    "links": {
        "self": "http://www.neowsapp.com/rest/v1/neo/3092280?api_key=iIulBulltgU6a56xZRHN4H3l9WmuAYTsLGpBGhQ2"
    },
    "id": "3092280",
    "neo_reference_id": "3092280",
    "name": "(2000 XF44)",
    "designation": "2000 XF44",
    "nasa_jpl_url": "http://ssd.jpl.nasa.gov/sbdb.cgi?sstr=3092280",
    "absolute_magnitude_h": 21.3,
    "estimated_diameter": {
        "kilometers": {
            "estimated_diameter_min": 0.1460679643,
            "estimated_diameter_max": 0.3266178974
        },
        "meters": {
            "estimated_diameter_min": 146.0679642714,
            "estimated_diameter_max": 326.6178974458
        },
        "miles": {
            "estimated_diameter_min": 0.090762397,
            "estimated_diameter_max": 0.2029508896
        },
        "feet": {
            "estimated_diameter_min": 479.2256199,
            "estimated_diameter_max": 1071.581062656
        }
    },
    "is_potentially_hazardous_asteroid": false,
    "close_approach_data": [
        {
            "close_approach_date": "2000-11-29",
            "close_approach_date_full": "2000-Nov-29 17:40",
            "epoch_date_close_approach": 975519600000,
            "relative_velocity": {
                "kilometers_per_second": "9.7294912064",
                "kilometers_per_hour": "35026.1683429254",
                "miles_per_hour": "21763.898879525"
            },
            "miss_distance": {
                "astronomical": "0.1360495174",
                "lunar": "52.9232622686",
                "kilometers": "20352718.017567938",
                "miles": "12646592.5458280244"
            },
            "orbiting_body": "Earth"
        },
        {
            "close_approach_date": "2004-12-19",
            "close_approach_date_full": "2004-Dec-19 16:07",
            "epoch_date_close_approach": 1103472420000,
            "relative_velocity": {
                "kilometers_per_second": "16.5335605141",
                "kilometers_per_hour": "59520.8178508846",
                "miles_per_hour": "36983.9215140677"
            },
            "miss_distance": {
                "astronomical": "0.430526806",
                "lunar": "167.474927534",
                "kilometers": "64405893.15550322",
                "miles": "40019966.256335636"
            },
            "orbiting_body": "Earth"
        }
    ],
    "orbital_data": {
        "orbit_id": "12",
        "orbit_determination_date": "2017-04-06 09:16:38",
        "first_observation_date": "2000-12-04",
        "last_observation_date": "2000-12-30",
        "data_arc_in_days": 26,
        "observations_used": 31,
        "orbit_uncertainty": "7",
        "minimum_orbit_intersection": ".13806",
        "jupiter_tisserand_invariant": "3.170",
        "epoch_osculation": "2459000.5",
        "eccentricity": ".559264543124644",
        "semi_major_axis": "2.551079729258624",
        "inclination": "13.23289397689379",
        "ascending_node_longitude": "245.1596581383444",
        "orbital_period": "1488.279414351144",
        "perihelion_distance": "1.124351290000259",
        "perihelion_argument": "177.1818406784357",
        "aphelion_distance": "3.977808168516989",
        "perihelion_time": "2459296.274772339572",
        "mean_anomaly": "288.4550219431287",
        "mean_motion": ".2418900621271791",
        "equinox": "J2000",
        "orbit_class": {
            "orbit_class_type": "AMO",
            "orbit_class_description": "Near-Earth asteroid orbits similar to that of 1221 Amor",
            "orbit_class_range": "1.017 AU < q (perihelion) < 1.3 AU"
        }
    },
    "is_sentry_object": false
}